GLOBALSTAR M057         
1 25943U 99058A   26003.62007433 -.00000119  00000+0 -24063-3 0  9990
2 25943  51.9973 139.3708 0003202  77.5644 282.5564 12.24832476191495
GLOBALSTAR M059         
1 25944U 99058B   26004.07959610 -.00000044  00000+0  52489-3 0  9993
2 25944  52.0044  23.6883 0000246  42.5847 352.5144 11.99989049598165
GLOBALSTAR M056         
1 25945U 99058C   26004.20180376 -.00000011  00000+0  89431-3 0  9995
2 25945  51.9992  20.1653 0000913 214.3217 224.9295 12.04782323186855
GLOBALSTAR M031         
1 25946U 99058D   25351.65166691 -.00000043  00000+0  48267-3 0  9990
2 25946  51.9983 309.4344 0000939 181.2254 351.7896 12.16044933186865
GLOBALSTAR M039         
1 25961U 99062A   26004.04413053 -.00000110  00000+0 -32059-4 0  9997
2 25961  51.9871  16.9373 0002792  74.9241 285.1934 12.62340123205588
GLOBALSTAR M034         
1 25962U 99062B   26003.99068091 -.00000052  00000+0  46578-3 0  9993
2 25962  51.9845 209.4121 0015376  62.4402  85.8692 11.79455308162085
GLOBALSTAR M029         
1 25963U 99062C   26004.12876786  .00000017  00000+0  12830-2 0  9991
2 25963  51.9809 271.4213 0002586 130.9527  17.2277 11.99907163193248
GLOBALSTAR M061         
1 25964U 99062D   26004.17203113 -.00000056  00000+0  39439-3 0  9994
2 25964  51.9814  35.6423 0005678 343.6290  60.3874 11.76777988144842
